{
  "type": "FeatureCollection",
  "features": [
    {
      "type": "Feature",
      "properties": {
        "norad_id": 39773,
        "name": "EUTELSAT 3B",
        "group": "eutelsat",
        "lat": -0.04686257888135015,
        "lon": -47.8367693729845,
        "alt_km": 35784.7271672509,
        "timestamp": "2025-12-02T15:49:06.854514+00:00",
        "meta_object_name": "EUTELSAT 3B",
        "meta_object_id": "2014-030A",
        "meta_epoch": "2025-12-02T05:14:21.638400",
        "meta_mean_motion": 1.00270578,
        "meta_eccentricity": 0.0004752,
        "meta_inclination": 0.0629,
        "meta_ra_of_asc_node": 358.738,
        "meta_arg_of_pericenter": 227.9713,
        "meta_mean_anomaly": 286.3063,
        "meta_ephemeris_type": 0,
        "meta_classification_type": "U",
        "meta_norad_cat_id": 39773,
        "meta_element_set_no": 999,
        "meta_rev_at_epoch": 4209,
        "meta_bstar": 0,
        "meta_mean_motion_dot": 4.1e-07,
        "meta_mean_motion_ddot": 0,
        "tle_line1": "1 39773U 14030A   25336.21830600  .00000041  00000+0  00000+0 0  9999",
        "tle_line2": "2 39773   0.0629 358.7380 0004752 227.9713 286.3063  1.00270578 42094"
      },
      "geometry": {
        "type": "Point",
        "coordinates": [
          -47.8367693729845,
          -0.04686257888135015
        ]
      }
    },
    {
      "type": "Feature",
      "properties": {
        "norad_id": 40425,
        "name": "EUTELSAT 115 WEST B",
        "group": "eutelsat",
        "lat": 0.00892540327810074,
        "lon": -165.89371177465932,
        "alt_km": 35787.45171798173,
        "timestamp": "2025-12-02T15:49:06.854525+00:00",
        "meta_object_name": "EUTELSAT 115 WEST B",
        "meta_object_id": "2015-010B",
        "meta_epoch": "2025-12-01T23:33:38.579328",
        "meta_mean_motion": 1.00269195,
        "meta_eccentricity": 1.917e-05,
        "meta_inclination": 0.0091,
        "meta_ra_of_asc_node": 164.6167,
        "meta_arg_of_pericenter": 243.8605,
        "meta_mean_anomaly": 261.1263,
        "meta_ephemeris_type": 0,
        "meta_classification_type": "U",
        "meta_norad_cat_id": 40425,
        "meta_element_set_no": 999,
        "meta_rev_at_epoch": 3941,
        "meta_bstar": 0,
        "meta_mean_motion_dot": -3e-08,
        "meta_mean_motion_ddot": 0,
        "tle_line1": "1 40425U 15010B   25335.98169652 -.00000003  00000+0  00000+0 0  9998",
        "tle_line2": "2 40425   0.0091 164.6167 0000191 243.8605 261.1263  1.00269195 39418"
      },
      "geometry": {
        "type": "Point",
        "coordinates": [
          -165.89371177465932,
          0.00892540327810074
        ]
      }
    },
    {
      "type": "Feature",
      "properties": {
        "norad_id": 40875,
        "name": "EUTELSAT 8 WEST B",
        "group": "eutelsat",
        "lat": -0.05157749759667646,
        "lon": -58.948284416776886,
        "alt_km": 35774.26405168296,
        "timestamp": "2025-12-02T15:49:06.854555+00:00",
        "meta_object_name": "EUTELSAT 8 WEST B",
        "meta_object_id": "2015-039B",
        "meta_epoch": "2025-12-02T05:11:06.948960",
        "meta_mean_motion": 1.00271505,
        "meta_eccentricity": 0.00041254,
        "meta_inclination": 0.0663,
        "meta_ra_of_asc_node": 344.6569,
        "meta_arg_of_pericenter": 269.3537,
        "meta_mean_anomaly": 247.0984,
        "meta_ephemeris_type": 0,
        "meta_classification_type": "U",
        "meta_norad_cat_id": 40875,
        "meta_element_set_no": 999,
        "meta_rev_at_epoch": 3768,
        "meta_bstar": 0,
        "meta_mean_motion_dot": -4.5e-07,
        "meta_mean_motion_ddot": 0,
        "tle_line1": "1 40875U 15039B   25336.21605265 -.00000045  00000+0  00000+0 0  9996",
        "tle_line2": "2 40875   0.0663 344.6569 0004125 269.3537 247.0984  1.00271505 37684"
      },
      "geometry": {
        "type": "Point",
        "coordinates": [
          -58.948284416776886,
          -0.05157749759667646
        ]
      }
    },
    {
      "type": "Feature",
      "properties": {
        "norad_id": 41310,
        "name": "EUTELSAT 9B",
        "group": "eutelsat",
        "lat": -0.04997043274905119,
        "lon": -41.95714827085317,
        "alt_km": 35774.32924793581,
        "timestamp": "2025-12-02T15:49:06.854568+00:00",
        "meta_object_name": "EUTELSAT 9B",
        "meta_object_id": "2016-005A",
        "meta_epoch": "2025-12-02T05:15:58.982688",
        "meta_mean_motion": 1.00270966,
        "meta_eccentricity": 0.0004831,
        "meta_inclination": 0.0623,
        "meta_ra_of_asc_node": 74.5775,
        "meta_arg_of_pericenter": 189.365,
        "meta_mean_anomaly": 255.368,
        "meta_ephemeris_type": 0,
        "meta_classification_type": "U",
        "meta_norad_cat_id": 41310,
        "meta_element_set_no": 999,
        "meta_rev_at_epoch": 3614,
        "meta_bstar": 0,
        "meta_mean_motion_dot": 8.3e-07,
        "meta_mean_motion_ddot": 0,
        "tle_line1": "1 41310U 16005A   25336.21943267  .00000083  00000+0  00000+0 0  9993",
        "tle_line2": "2 41310   0.0623  74.5775 0004831 189.3650 255.3680  1.00270966 36149"
      },
      "geometry": {
        "type": "Point",
        "coordinates": [
          -41.95714827085317,
          -0.04997043274905119
        ]
      }
    },
    {
      "type": "Feature",
      "properties": {
        "norad_id": 41382,
        "name": "EUTELSAT 65 WEST A",
        "group": "eutelsat",
        "lat": -0.07195701659594589,
        "lon": -116.19429756819169,
        "alt_km": 35775.151083163415,
        "timestamp": "2025-12-02T15:49:06.854580+00:00",
        "meta_object_name": "EUTELSAT 65 WEST A",
        "meta_object_id": "2016-014A",
        "meta_epoch": "2025-12-02T04:54:53.501760",
        "meta_mean_motion": 1.0027119,
        "meta_eccentricity": 0.00027117,
        "meta_inclination": 0.0507,
        "meta_ra_of_asc_node": 340.711,
        "meta_arg_of_pericenter": 276.879,
        "meta_mean_anomaly": 182.2487,
        "meta_ephemeris_type": 0,
        "meta_classification_type": "U",
        "meta_norad_cat_id": 41382,
        "meta_element_set_no": 999,
        "meta_rev_at_epoch": 3556,
        "meta_bstar": 0,
        "meta_mean_motion_dot": -2.55e-06,
        "meta_mean_motion_ddot": 0,
        "tle_line1": "1 41382U 16014A   25336.20478590 -.00000255  00000+0  00000+0 0  9995",
        "tle_line2": "2 41382   0.0507 340.7110 0002711 276.8790 182.2487  1.00271190 35560"
      },
      "geometry": {
        "type": "Point",
        "coordinates": [
          -116.19429756819169,
          -0.07195701659594589
        ]
      }
    },
    {
      "type": "Feature",
      "properties": {
        "norad_id": 41589,
        "name": "EUTELSAT 117 WEST B",
        "group": "eutelsat",
        "lat": 0.013565944117258675,
        "lon": -167.9770829694175,
        "alt_km": 35785.932233107094,
        "timestamp": "2025-12-02T15:49:06.854592+00:00",
        "meta_object_name": "EUTELSAT 117 WEST B",
        "meta_object_id": "2016-038B",
        "meta_epoch": "2025-12-01T14:58:10.977024",
        "meta_mean_motion": 1.00272248,
        "meta_eccentricity": 1.075e-05,
        "meta_inclination": 0.0065,
        "meta_ra_of_asc_node": 141.8344,
        "meta_arg_of_pericenter": 143.4656,
        "meta_mean_anomaly": 252.9964,
        "meta_ephemeris_type": 0,
        "meta_classification_type": "U",
        "meta_norad_cat_id": 41589,
        "meta_element_set_no": 999,
        "meta_rev_at_epoch": 3468,
        "meta_bstar": 0,
        "meta_mean_motion_dot": 1e-07,
        "meta_mean_motion_ddot": 0,
        "tle_line1": "1 41589U 16038B   25335.62373816  .00000010  00000+0  00000+0 0  9998",
        "tle_line2": "2 41589   0.0065 141.8344 0000107 143.4656 252.9964  1.00272248 34686"
      },
      "geometry": {
        "type": "Point",
        "coordinates": [
          -167.9770829694175,
          0.013565944117258675
        ]
      }
    },
    {
      "type": "Feature",
      "properties": {
        "norad_id": 42741,
        "name": "EUTELSAT 172B",
        "group": "eutelsat",
        "lat": -0.0004582003168501447,
        "lon": 121.00597917911924,
        "alt_km": 35787.10739930094,
        "timestamp": "2025-12-02T15:49:06.854604+00:00",
        "meta_object_name": "EUTELSAT 172B",
        "meta_object_id": "2017-029B",
        "meta_epoch": "2025-12-02T06:02:32.024256",
        "meta_mean_motion": 1.00270594,
        "meta_eccentricity": 2.558e-05,
        "meta_inclination": 0.0107,
        "meta_ra_of_asc_node": 103.0571,
        "meta_arg_of_pericenter": 148.879,
        "meta_mean_anomaly": 82.055,
        "meta_ephemeris_type": 0,
        "meta_classification_type": "U",
        "meta_norad_cat_id": 42741,
        "meta_element_set_no": 999,
        "meta_rev_at_epoch": 3175,
        "meta_bstar": 0,
        "meta_mean_motion_dot": 1.5e-07,
        "meta_mean_motion_ddot": 0,
        "tle_line1": "1 42741U 17029B   25336.25175954  .00000015  00000+0  00000+0 0  9998",
        "tle_line2": "2 42741   0.0107 103.0571 0000255 148.8790  82.0550  1.00270594 31758"
      },
      "geometry": {
        "type": "Point",
        "coordinates": [
          121.00597917911924,
          -0.0004582003168501447
        ]
      }
    }
  ]
}